{
    "links": {
        "self": "http://www.neowsapp.com/rest/v1/neo/3748497?api_key=iIulBulltgU6a56xZRHN4H3l9WmuAYTsLGpBGhQ2"
    },
    "id": "3748497",
    "neo_reference_id": "3748497",
    "name": "(2016 FU13)",
    "designation": "2016 FU13",
    "nasa_jpl_url": "http://ssd.jpl.nasa.gov/sbdb.cgi?sstr=3748497",
    "absolute_magnitude_h": 22.3,
    "estimated_diameter": {
        "kilometers": {
            "estimated_diameter_min": 0.0921626549,
            "estimated_diameter_max": 0.2060819612
        },
        "meters": {
            "estimated_diameter_min": 92.1626548503,
            "estimated_diameter_max": 206.0819612321
        },
        "miles": {
            "estimated_diameter_min": 0.057267201,
            "estimated_diameter_max": 0.1280533543
        },
        "feet": {
            "estimated_diameter_min": 302.370924539,
            "estimated_diameter_max": 676.1219416887
        }
    },
    "is_potentially_hazardous_asteroid": false,
    "close_approach_data": [
        {
            "close_approach_date": "1957-04-03",
            "close_approach_date_full": "1957-Apr-03 02:26",
            "epoch_date_close_approach": -402269640000,
            "relative_velocity": {
                "kilometers_per_second": "18.8921838916",
                "kilometers_per_hour": "68011.8620097395",
                "miles_per_hour": "42259.9261471073"
            },
            "miss_distance": {
                "astronomical": "0.3585833867",
                "lunar": "139.4889374263",
                "kilometers": "53643310.867706329",
                "miles": "33332407.7289081802"
            },
            "orbiting_body": "Earth"
        },
        {
            "close_approach_date": "2012-06-19",
            "close_approach_date_full": "2012-Jun-19 22:50",
            "epoch_date_close_approach": 1340146200000,
            "relative_velocity": {
                "kilometers_per_second": "17.0392275837",
                "kilometers_per_hour": "61341.2193012286",
                "miles_per_hour": "38115.0481819217"
            },
            "miss_distance": {
                "astronomical": "0.4749468655",
                "lunar": "184.7543306795",
                "kilometers": "71051039.441976485",
                "miles": "44149068.689726093"
            },
            "orbiting_body": "Earth"
        },
        {
            "close_approach_date": "2016-04-25",
            "close_approach_date_full": "2016-Apr-25 11:51",
            "epoch_date_close_approach": 1461585060000,
            "relative_velocity": {
                "kilometers_per_second": "11.2522184778",
                "kilometers_per_hour": "40507.9865201272",
                "miles_per_hour": "25170.0875130201"
            },
            "miss_distance": {
                "astronomical": "0.1239887721",
                "lunar": "48.2316323469",
                "kilometers": "18548456.210075427",
                "miles": "11525476.2455058126"
            },
            "orbiting_body": "Earth"
        },
        {
            "close_approach_date": "2020-04-01",
            "close_approach_date_full": "2020-Apr-01 23:22",
            "epoch_date_close_approach": 1585783320000,
            "relative_velocity": {
                "kilometers_per_second": "19.0557236582",
                "kilometers_per_hour": "68600.605169403",
                "miles_per_hour": "42625.7482509549"
            },
            "miss_distance": {
                "astronomical": "0.3551472212",
                "lunar": "138.1522690468",
                "kilometers": "53129267.827938844",
                "miles": "33012996.1953062872"
            },
            "orbiting_body": "Earth"
        },
        {
            "close_approach_date": "2083-03-29",
            "close_approach_date_full": "2083-Mar-29 00:25",
            "epoch_date_close_approach": 3573505500000,
            "relative_velocity": {
                "kilometers_per_second": "21.601024767",
                "kilometers_per_hour": "77763.6891611266",
                "miles_per_hour": "48319.3323012567"
            },
            "miss_distance": {
                "astronomical": "0.4641604092",
                "lunar": "180.5583991788",
                "kilometers": "69437408.554648404",
                "miles": "43146404.9504758152"
            },
            "orbiting_body": "Earth"
        }
    ],
    "orbital_data": {
        "orbit_id": "32",
        "orbit_determination_date": "2018-02-10 07:07:46",
        "first_observation_date": "2016-03-29",
        "last_observation_date": "2016-07-02",
        "data_arc_in_days": 95,
        "observations_used": 170,
        "orbit_uncertainty": "6",
        "minimum_orbit_intersection": ".108746",
        "jupiter_tisserand_invariant": "3.176",
        "epoch_osculation": "2459000.5",
        "eccentricity": ".5714775939267148",
        "semi_major_axis": "2.492921896405537",
        "inclination": "16.59982051608586",
        "ascending_node_longitude": "200.8721782832031",
        "orbital_period": "1437.677364955934",
        "perihelion_distance": "1.068272889200478",
        "perihelion_argument": "33.15256245001049",
        "aphelion_distance": "3.917570903610597",
        "perihelion_time": "2458962.147700038397",
        "mean_anomaly": "9.603564974120721",
        "mean_motion": ".2504038866961185",
        "equinox": "J2000",
        "orbit_class": {
            "orbit_class_type": "AMO",
            "orbit_class_description": "Near-Earth asteroid orbits similar to that of 1221 Amor",
            "orbit_class_range": "1.017 AU < q (perihelion) < 1.3 AU"
        }
    },
    "is_sentry_object": false
}